#cP2023  4 28  0  0  0.00000000      96 ORBIT IGS20 HLM  IGS
## 2259 432000.00000000   900.00000000 60062 0.0000000000000
+   32   G01G02G03G04G05G06G07G08G09G10G11G12G13G14G15G16G17
+        G18G19G20G21G22G23G24G25G26G27G28G29G30G31G32  0  0
+          0  0  0  0  0  0  0  0  0  0  0  0  0  0  0  0  0
+          0  0  0  0  0  0  0  0  0  0  0  0  0  0  0  0  0
+          0  0  0  0  0  0  0  0  0  0  0  0  0  0  0  0  0
++         2  2  2  2  2  2  2  2  2  2  2  2  2  2  2  2  2
++         2  2  2  2  3  2  2  2  2  2  2  2  2  2  2  0  0
++         0  0  0  0  0  0  0  0  0  0  0  0  0  0  0  0  0
++         0  0  0  0  0  0  0  0  0  0  0  0  0  0  0  0  0
++         0  0  0  0  0  0  0  0  0  0  0  0  0  0  0  0  0
%c G  cc GPS ccc cccc cccc cccc cccc ccccc ccccc ccccc ccccc
%c cc cc ccc ccc cccc cccc cccc cccc ccccc ccccc ccccc ccccc
%f  1.2500000  1.025000000  0.00000000000  0.000000000000000
%f  0.0000000  0.000000000  0.00000000000  0.000000000000000
%i    0    0    0    0      0      0      0      0         0
%i    0    0    0    0      0      0      0      0         0
/* RAPID ORBIT COMBINATION FROM WEIGHTED AVERAGE OF:        
/* cod emr esa gfz grg jpl ngs sio usn whu                  
/* REFERENCED TO IGS TIME (IGST) AND TO WEIGHTED MEAN POLE: 
/* PCV:IGS20_2233 OL/AL:FES2014b NONE     Y  ORB:CMB CLK:CMB
*  2023  4 28  9  0  0.00000000
PG01 -21513.856295 -14765.496754  -6217.085274    189.563159  8  6  6  84       
PG02  21008.925923  -3594.775355 -15260.121807   -601.656535  5  7  4  56       
PG03 -12499.445641 -17007.352983  16070.174184   -318.183776  4  5  3 104       
PG04 -16112.998021  -6217.178373  20221.115093     27.804936  8  5  5 104       
PG05   5223.100968  25897.664890  -2169.911914   -125.116084  6  7  5  76       
PG06 -13316.545039   9143.227330  21166.281337    587.875244  3  6  5  74       
PG07 -25027.166992  -5802.062030  -7218.272258    191.149579  8  7  8  95       
PG08  -5297.689558 -14827.923122 -21410.387131   -119.885291  4  6  2 103       
PG09 -22052.635584   3929.225916  14233.381979   -170.599637  4  4  1  97       
PG10  11583.957805 -13896.052162 -19157.024930    -34.698751  6  5  1  86       
PG11   1666.287767  16835.558295  20493.076886   -177.677886  3  7  8  84       
PG12  10290.548096  19857.835400  14110.250541   -369.387001  5  7  5  92       
PG13  -3672.979706  17332.246907 -19898.123132    512.217764  6  8  7  92       
PG14 -13673.813254  10754.232271 -20021.406880     39.054800  6  5  4  86       
PG15   7794.104011  14434.793668 -21315.294102     34.640187  6  7  5  91       
PG16     -5.710511 -26301.678084    310.713387   -505.472009  6  5  6  96       
PG17 -22758.943674  13768.748327   -543.231060    712.603664     6  3  45       
PG18  23957.887993   2986.260428 -11240.564979   -243.445122  9  6  8  70       
PG19 -18966.522815  16626.643280   7598.551956    309.628954  4  7  3  77       
PG20    895.851137  25417.574001   8036.233137    436.553583  8  8  5  94       
PG21 -17087.504812 -15739.609973 -13055.389301    154.060638  7  8  5  94       
PG22  15816.176616 -18392.975809  11069.904607    472.021938  9  6  4 114       
PG23  14951.208426   -724.302983 -21938.852919     20.013660  7  3  6  76       
PG24  19607.227069  15144.388573 -10478.644091   -168.670815  6  7  5  81       
PG25  15068.874384   8887.597091  19746.977207    438.909830  5  3  3  97       
PG26   5978.017934 -22202.536198  12879.533799    241.388003  4  7    107       
PG27   6376.719161 -19202.529541 -17231.757068     49.122607  7  4  5  98       
PG28  14963.839927  -8921.625294  20021.658719     71.535994  6  8  4 103       
PG29  20631.740449    711.940887  16705.710096   -597.336790  4  6  6  97       
PG30 -20342.438724   4032.639416 -16629.637486   -520.124320  7  7  4  90       
PG31   6636.132251 -13748.681521  21565.410657   -214.960399  5  6  4 110       
PG32  20806.419196 -16293.563744   1333.516990   -463.028855  7  4  6  84       
*  2023  4 28  9 15  0.00000000
PG01 -20713.981038 -14558.172332  -8936.993536    189.560393  8  6  5  85       
PG02  22568.774346  -2876.384989 -13087.261302   -601.653307  5  7  4  58       
PG03 -12577.477407 -18743.198249  13967.751160   -318.174844  5  5  4 100       
PG04 -14233.024349  -7645.068946  21113.063410     27.813471  8  5  5 108       
PG05   4987.586617  26005.986709    701.024608   -125.117770  7  7  5  94       
PG06 -15444.756180   8171.374349  20096.096447    587.875756  2  6  5  80       
PG07 -25592.714642  -6303.563485  -4516.846826    191.141695  9  7  8  80       
PG08  -3379.034539 -16275.544543 -20699.318742   -119.887515  4  6  1 100       
PG09 -20801.536188   2683.320900  16249.280891   -170.592275  4  4  2  94       
PG10  11989.686085 -11627.073393 -20395.374777    -34.700174  6  5  2  74       
PG11   -517.608975  15867.777630  21307.399262   -177.689721  4  7  8  31       
PG12  10185.912868  21387.808445  11816.298847   -369.391512  6  7  5  84       
PG13  -5617.348314  18297.696886 -18501.395292    512.222746  7  8  7  95       
PG14 -13998.697588   8424.381258 -20906.027948     39.065826  6  5  5  87       
PG15   6104.301403  16032.270621 -20678.029755     34.643404  6  7  6  97       
PG16    281.952636 -26076.985846   3193.674512   -505.469452  5  4  6  97       
PG17 -22650.159295  13442.609932  -3408.231345    712.605258     6  3  58       
PG18  24922.472107   3609.774466  -8680.551688   -243.459790  9  7  8  77       
PG19 -19723.085845  16810.990797   4820.073585    309.633488  3  7  3  73       
PG20    349.315393  24479.463174  10579.376281    436.551326  8  7  5 102       
PG21 -15447.121459 -15378.895267 -15181.192300    154.061009  7  8  5 102       
PG22  16836.930792 -18777.434955   8505.232958    472.027769  8  5  5 114       
PG23  15326.581806   1736.783170 -21633.968389     20.016236  7  4  6  75       
PG24  18317.838162  14989.173821 -12813.857612   -168.683716  6  7  5  83       
PG25  15266.188898  11123.391640  18464.523411    438.912362  5  2  2  92       
PG26   6564.608712 -20655.569283  15006.246779    241.387606  4  7  2 107       
PG27   7935.495883 -20182.711260 -15293.127808     49.115129  7  4  5  88       
PG28  17003.433187  -8032.598766  18729.329837     71.540498  6  8  3  95       
PG29  19010.735917   1912.989695  18431.862864   -597.338084  5  6  7 103       
PG30 -21925.026547   3129.964668 -14740.617347   -520.122488  7  7  5  94       
PG31   8917.228581 -12738.491522  21403.153285   -214.960893  5  7  4 109       
PG32  20951.581215 -16057.398088  -1530.907819   -463.037598  8  5  6  82       
*  2023  4 28  9 30  0.00000000
PG01 -19626.696849 -14294.648139 -11508.007542    189.557730  9  6  5 101       
PG02  23907.273815  -2309.479459 -10681.006770   -601.649728  5  7  5  67       
PG03 -12703.831091 -20222.718874  11624.503968   -318.165946  5  5  4  95       
PG04 -12367.183631  -9220.695804  21642.752929     27.822054  8  5  5 100       
PG05   4681.140725  25810.043531   3559.782463   -125.118972  7  6  5  84       
PG06 -17491.997130   7369.425094  18682.821956    587.876243  2  6  6  74       
PG07 -25893.207535  -6668.865610  -1739.199760    191.133597  9  7  8  87       
PG08  -1609.011032 -17754.806996 -19631.579372   -119.888217  4  6  2  99       
PG09 -19457.646865   1232.035452  17984.651616   -170.584999  4  4  3  99       
PG10  12540.038740  -9266.066615 -21274.801425    -34.701548  5  5  3  85       
PG11  -2816.131889  14989.854143  21755.570314   -177.701589  5  6  8  71       
PG12  10131.214560  22648.096620   9316.951594   -369.395281  7  6  5  78       
PG13  -7362.300113  19271.222785 -16788.464618    512.227654  7  8  7  99       
PG14 -14451.975086   6036.322731 -21429.814509     39.076786  6  6  4 102       
PG15   4550.173679  17645.051246 -19697.009192     34.646271  7  6  5 101       
PG16    615.779763 -25541.101819   6019.823221   -505.466485  4  3  5 102       
PG17 -22304.663096  12912.774559  -6214.512996    712.606602  1  6  3  56       
PG18  25640.153053   4076.584652  -5972.414114   -243.474445 10  8  8  71       
PG19 -20201.995977  16852.514535   1956.717020    309.638060  3  7  3  73       
PG20   -340.095763  23311.255065  12942.674904    436.549585  8  7  5 101       
PG21 -13561.944069 -15051.133439 -17045.762592    154.061021  7  8  5 105       
PG22  17599.352183 -19038.337289   5795.133589    472.033812  7  4  5 113       
PG23  15822.403069   4118.204684 -20957.234424     20.018816  7  5  6  76       
PG24  16783.619493  14835.801733 -14937.134290   -168.696555  7  7  6  93       
PG25  15543.964612  13181.024004  16859.044043    438.914926  5  2  2  90       
PG26   7279.572716 -18919.012559  16868.853744    241.387222  5  6  3 106       
PG27   9267.165637 -21091.007908 -13090.645058     49.107639  7  4  5  77       
PG28  18929.169243  -7300.051072  17114.010392     71.544966  7  8  3  93       
PG29  17314.115127   3307.303677  19840.402582   -597.339482  6  6  7  99       
PG30 -23334.416222   2383.719165 -12599.160266   -520.120672  7  7  5  85       
PG31  11205.312949 -11861.317519  20868.226840   -214.961661  4  7  3  99       
PG32  20865.621439 -15613.763621  -4368.611810   -463.046340  8  5  5  80       
EOF
